ONEWEB-0645             
1 55809U 23029P   25143.08796978  .00000095  00000+0  20591-3 0  9995
2 55809  87.9247  22.5416 0001458  81.3313 278.7984 13.19727225108141
ONEWEB-0646             
1 55810U 23029Q   25142.58726485  .00000016  00000+0  64360-5 0  9994
2 55810  87.9247  22.6348 0001779  90.2463 269.8873 13.19723859108067
ONEWEB-0648             
1 55811U 23029R   25142.70427141  .00000114  00000+0  27186-3 0  9998
2 55811  87.9061   7.3920 0001037 111.5852 248.5388 13.14501937108807
ONEWEB-0649             
1 55812U 23029S   25142.39852279  .00000030  00000+0  42493-4 0  9994
2 55812  87.9245  22.6621 0001405  91.7804 268.3490 13.19724245107385
ONEWEB-0650             
1 55813U 23029T   25142.39378549  .00000001  00000+0 -29034-4 0  9993
2 55813  87.9246  22.6719 0001735  87.1476 272.9855 13.19724267107352
ONEWEB-0652             
1 55814U 23029U   25142.60911472  .00000213  00000+0  53872-3 0  9996
2 55814  87.9057   7.4210 0001919  80.7092 279.4255 13.14504105108749
ONEWEB-0653             
1 55815U 23029V   25142.59326846  .00000065  00000+0  14089-3 0  9992
2 55815  87.9059   7.4127 0001771  75.9706 284.1620 13.14503582108087
ONEWEB-0654             
1 55816U 23029W   25142.58850905 -.00000049  00000+0 -16689-3 0  9992
2 55816  87.9056   7.4147 0002072  74.2188 285.9170 13.14503553108108
